{
  "type": "FeatureCollection",
  "features": [
    {
      "type": "Feature",
      "properties": {
        "norad_id": 34434,
        "name": "COSMOS 2251 DEB",
        "group": "cosmos-2251-debris",
        "lat": -54.12844783522587,
        "lon": -19.466188573245354,
        "alt_km": 1126.523383432991,
        "timestamp": "2025-12-16T10:53:45.865433+00:00",
        "meta_object_name": "COSMOS 2251 DEB",
        "meta_object_id": "1993-036SB",
        "meta_epoch": "2025-12-15T15:00:14.330304",
        "meta_mean_motion": 13.8983112,
        "meta_eccentricity": 0.02744934,
        "meta_inclination": 74.0633,
        "meta_ra_of_asc_node": 5.217,
        "meta_arg_of_pericenter": 141.8561,
        "meta_mean_anomaly": 334.4009,
        "meta_ephemeris_type": 0,
        "meta_classification_type": "U",
        "meta_norad_cat_id": 34434,
        "meta_element_set_no": 999,
        "meta_rev_at_epoch": 84006,
        "meta_bstar": 0.0021321275,
        "meta_mean_motion_dot": 3.529e-05,
        "meta_mean_motion_ddot": 0,
        "tle_line1": "1 34434U 93036SB  25349.62516586  .00003529  00000+0  21321-2 0  9990",
        "tle_line2": "2 34434  74.0633   5.2170 0274493 141.8561 334.4009 13.89831120840060"
      },
      "geometry": {
        "type": "Point",
        "coordinates": [
          -19.466188573245354,
          -54.12844783522587
        ]
      }
    },
    {
      "type": "Feature",
      "properties": {
        "norad_id": 34446,
        "name": "COSMOS 2251 DEB",
        "group": "cosmos-2251-debris",
        "lat": -22.72596697245992,
        "lon": -122.79954133284231,
        "alt_km": 697.9534743194072,
        "timestamp": "2025-12-16T10:53:45.865443+00:00",
        "meta_object_name": "COSMOS 2251 DEB",
        "meta_object_id": "1993-036SP",
        "meta_epoch": "2025-12-15T12:25:28.352064",
        "meta_mean_motion": 14.4935635,
        "meta_eccentricity": 0.00510169,
        "meta_inclination": 74.0423,
        "meta_ra_of_asc_node": 52.0724,
        "meta_arg_of_pericenter": 189.4823,
        "meta_mean_anomaly": 170.538,
        "meta_ephemeris_type": 0,
        "meta_classification_type": "U",
        "meta_norad_cat_id": 34446,
        "meta_element_set_no": 999,
        "meta_rev_at_epoch": 88734,
        "meta_bstar": 0.0001367125,
        "meta_mean_motion_dot": 5.02e-06,
        "meta_mean_motion_ddot": 0,
        "tle_line1": "1 34446U 93036SP  25349.51768926  .00000502  00000+0  13671-3 0  9996",
        "tle_line2": "2 34446  74.0423  52.0724 0051016 189.4823 170.5380 14.49356350887345"
      },
      "geometry": {
        "type": "Point",
        "coordinates": [
          -122.79954133284231,
          -22.72596697245992
        ]
      }
    },
    {
      "type": "Feature",
      "properties": {
        "norad_id": 34449,
        "name": "COSMOS 2251 DEB",
        "group": "cosmos-2251-debris",
        "lat": -56.976524718643866,
        "lon": -90.79776635018926,
        "alt_km": 600.5497719232853,
        "timestamp": "2025-12-16T10:53:45.865454+00:00",
        "meta_object_name": "COSMOS 2251 DEB",
        "meta_object_id": "1993-036SS",
        "meta_epoch": "2025-12-15T23:22:20.646912",
        "meta_mean_motion": 14.950786,
        "meta_eccentricity": 0.00229627,
        "meta_inclination": 74.0326,
        "meta_ra_of_asc_node": 64.0342,
        "meta_arg_of_pericenter": 104.3553,
        "meta_mean_anomaly": 72.8715,
        "meta_ephemeris_type": 0,
        "meta_classification_type": "U",
        "meta_norad_cat_id": 34449,
        "meta_element_set_no": 999,
        "meta_rev_at_epoch": 88741,
        "meta_bstar": 0.0018775612,
        "meta_mean_motion_dot": 0.00020707,
        "meta_mean_motion_ddot": 0,
        "tle_line1": "1 34449U 93036SS  25349.97385008  .00020707  00000+0  18776-2 0  9994",
        "tle_line2": "2 34449  74.0326  64.0342 0022962 104.3553  72.8715 14.95078600887417"
      },
      "geometry": {
        "type": "Point",
        "coordinates": [
          -90.79776635018926,
          -56.976524718643866
        ]
      }
    },
    {
      "type": "Feature",
      "properties": {
        "norad_id": 34451,
        "name": "COSMOS 2251 DEB",
        "group": "cosmos-2251-debris",
        "lat": -39.18375867304022,
        "lon": -86.14053134468112,
        "alt_km": 595.1195326818652,
        "timestamp": "2025-12-16T10:53:45.865464+00:00",
        "meta_object_name": "COSMOS 2251 DEB",
        "meta_object_id": "1993-036SU",
        "meta_epoch": "2025-12-15T22:40:37.836768",
        "meta_mean_motion": 14.9577706,
        "meta_eccentricity": 0.00239825,
        "meta_inclination": 74.0466,
        "meta_ra_of_asc_node": 81.4025,
        "meta_arg_of_pericenter": 99.0793,
        "meta_mean_anomaly": 261.3107,
        "meta_ephemeris_type": 0,
        "meta_classification_type": "U",
        "meta_norad_cat_id": 34451,
        "meta_element_set_no": 999,
        "meta_rev_at_epoch": 88683,
        "meta_bstar": 0.0019659682,
        "meta_mean_motion_dot": 0.00022089,
        "meta_mean_motion_ddot": 0,
        "tle_line1": "1 34451U 93036SU  25349.94488237  .00022089  00000+0  19660-2 0  9990",
        "tle_line2": "2 34451  74.0466  81.4025 0023982  99.0793 261.3107 14.95777060886836"
      },
      "geometry": {
        "type": "Point",
        "coordinates": [
          -86.14053134468112,
          -39.18375867304022
        ]
      }
    },
    {
      "type": "Feature",
      "properties": {
        "norad_id": 34452,
        "name": "COSMOS 2251 DEB",
        "group": "cosmos-2251-debris",
        "lat": 15.085229755474405,
        "lon": -9.293236041731015,
        "alt_km": 528.1932857158181,
        "timestamp": "2025-12-16T10:53:45.865474+00:00",
        "meta_object_name": "COSMOS 2251 DEB",
        "meta_object_id": "1993-036SV",
        "meta_epoch": "2025-12-15T21:59:36.023424",
        "meta_mean_motion": 15.1176577,
        "meta_eccentricity": 0.00657879,
        "meta_inclination": 74.0339,
        "meta_ra_of_asc_node": 176.2452,
        "meta_arg_of_pericenter": 251.8704,
        "meta_mean_anomaly": 228.4262,
        "meta_ephemeris_type": 0,
        "meta_classification_type": "U",
        "meta_norad_cat_id": 34452,
        "meta_element_set_no": 999,
        "meta_rev_at_epoch": 90710,
        "meta_bstar": 0.00056684799,
        "meta_mean_motion_dot": 0.00010158,
        "meta_mean_motion_ddot": 0,
        "tle_line1": "1 34452U 93036SV  25349.91638916  .00010158  00000+0  56685-3 0  9992",
        "tle_line2": "2 34452  74.0339 176.2452 0065787 251.8704 228.4262 15.11765770907106"
      },
      "geometry": {
        "type": "Point",
        "coordinates": [
          -9.293236041731015,
          15.085229755474405
        ]
      }
    },
    {
      "type": "Feature",
      "properties": {
        "norad_id": 34454,
        "name": "COSMOS 2251 DEB",
        "group": "cosmos-2251-debris",
        "lat": -52.33573505133272,
        "lon": -110.93591095621461,
        "alt_km": 746.4714329419048,
        "timestamp": "2025-12-16T10:53:45.865485+00:00",
        "meta_object_name": "COSMOS 2251 DEB",
        "meta_object_id": "1993-036SX",
        "meta_epoch": "2025-12-15T21:48:06.174720",
        "meta_mean_motion": 14.3881389,
        "meta_eccentricity": 0.00357146,
        "meta_inclination": 74.0588,
        "meta_ra_of_asc_node": 271.8017,
        "meta_arg_of_pericenter": 333.7172,
        "meta_mean_anomaly": 26.2169,
        "meta_ephemeris_type": 0,
        "meta_classification_type": "U",
        "meta_norad_cat_id": 34454,
        "meta_element_set_no": 999,
        "meta_rev_at_epoch": 88113,
        "meta_bstar": 0.00024094546,
        "meta_mean_motion_dot": 7.2e-06,
        "meta_mean_motion_ddot": 0,
        "tle_line1": "1 34454U 93036SX  25349.90840480  .00000720  00000+0  24095-3 0  9998",
        "tle_line2": "2 34454  74.0588 271.8017 0035714 333.7172  26.2169 14.38813890881138"
      },
      "geometry": {
        "type": "Point",
        "coordinates": [
          -110.93591095621461,
          -52.33573505133272
        ]
      }
    },
    {
      "type": "Feature",
      "properties": {
        "norad_id": 34459,
        "name": "COSMOS 2251 DEB",
        "group": "cosmos-2251-debris",
        "lat": 27.95856647474062,
        "lon": 58.91558692629564,
        "alt_km": 1025.713101618352,
        "timestamp": "2025-12-16T10:53:45.865495+00:00",
        "meta_object_name": "COSMOS 2251 DEB",
        "meta_object_id": "1993-036TC",
        "meta_epoch": "2025-12-15T18:44:24.915552",
        "meta_mean_motion": 14.00505037,
        "meta_eccentricity": 0.0192098,
        "meta_inclination": 74.0789,
        "meta_ra_of_asc_node": 248.7927,
        "meta_arg_of_pericenter": 317.8903,
        "meta_mean_anomaly": 40.7601,
        "meta_ephemeris_type": 0,
        "meta_classification_type": "U",
        "meta_norad_cat_id": 34459,
        "meta_element_set_no": 999,
        "meta_rev_at_epoch": 85754,
        "meta_bstar": 0.00043823063,
        "meta_mean_motion_dot": 7.38e-06,
        "meta_mean_motion_ddot": 0,
        "tle_line1": "1 34459U 93036TC  25349.78084393  .00000738  00000+0  43823-3 0  9991",
        "tle_line2": "2 34459  74.0789 248.7927 0192098 317.8903  40.7601 14.00505037857543"
      },
      "geometry": {
        "type": "Point",
        "coordinates": [
          58.91558692629564,
          27.95856647474062
        ]
      }
    }
  ]
}